#aV2024 12  7  0  0  0.00000000     288 DD+AD WGS84 FIT  NGA
## 2343 518400.00000000   300.00000000 60651 0.0000000000000
+   31     2  3  4  5  6  7  8  9 10 11 12 13 14 15 16 17 18
+         19 20 21 22 23 24 25 26 27 28 29 30 31 32  0  0  0
+          0  0  0  0  0  0  0  0  0  0  0  0  0  0  0  0  0
+          0  0  0  0  0  0  0  0  0  0  0  0  0  0  0  0  0
+          0  0  0  0  0  0  0  0  0  0  0  0  0  0  0  0  0
++         2  2  2  2  2  2  2  2  2  2  2  2  2  2  2  2  2
++         2  2  2  2  2  2  2  2  2  2  2  2  2  2  0  0  0
++         0  0  0  0  0  0  0  0  0  0  0  0  0  0  0  0  0
++         0  0  0  0  0  0  0  0  0  0  0  0  0  0  0  0  0
++         0  0  0  0  0  0  0  0  0  0  0  0  0  0  0  0  0
%c cc cc ccc ccc cccc cccc cccc cccc ccccc ccccc ccccc ccccc
%c cc cc ccc ccc cccc cccc cccc cccc ccccc ccccc ccccc ccccc
%f  0.0000000  0.000000000  0.00000000000  0.000000000000000
%f  0.0000000  0.000000000  0.00000000000  0.000000000000000
%i    0    0    0    0      0      0      0      0         0
%i    0    0    0    0      0      0      0      0         0
/*      NGA, ST. LOUIS,MO.                                  
/*   EPHEMERIS COMPUTED FROM 2 DAYS OF DATA                 
/*   EPOCHA v9 SMOOTHER                                     
/*   G2296 IERS2010 SATIGS SATAPC                           
*  2024 12  7 22 30  0.00000000
P  2  14332.970285 -21000.119823   7446.961185   -297.241202                    
V  2   -940.107649   9274.053677  30210.958155      0.087832                    
P  3  15515.121671 -12324.970865 -17795.059765    619.160057                    
V  3  22279.240105    372.155921  19451.653878      0.092017                    
P  4   5689.087130 -16970.212470 -19557.454919    492.165162                    
V  4  13705.545983  20827.023623 -14222.214599      0.062337                    
P  5 -25625.221985   5385.927840   4475.813184   -195.326271                    
V  5  -6071.674151  -1765.095011 -31338.288662     -0.011647                    
P  6 -10577.799917 -10613.459775 -21844.539310    -26.966930                    
V  6  13623.847273 -24289.102693   5299.747620     -0.291512                    
P  7   4574.003638 -24169.537365   9941.820013    -16.451394                    
V  7   8256.935029  -9265.539883 -28267.877883      0.015019                    
P  8  14164.772194  -6438.245168  21431.034733    433.000266                    
V  8  15547.114543  22696.288388  -2992.399593      0.092684                    
P  9  -3005.381305 -22262.891126 -14206.084946    477.339814                    
V  9  11808.692614  13644.555604 -24102.112450      0.164370                    
P 10  17617.608834  10665.161738  17190.758444   -225.398979                    
V 10 -21140.026315   1829.924714  20478.038578     -0.151747                    
P 11 -17446.239096   2811.833995 -19768.471816   -752.326141                    
V 11  11656.211755 -22365.823719 -13500.504964     -0.006454                    
P 12 -19364.718908  10191.791630 -15308.182260   -556.949025                    
V 12 -18890.334259  -2435.747303  22747.707623     -0.023890                    
P 13 -16655.294243  -3373.893503  20241.523590    689.095710                    
V 13  -9972.685784 -24164.339337 -11863.252735      0.014730                    
P 14 -13832.533978 -13156.283404  18606.687230    555.580889                    
V 14  23463.879718  -2057.619843  15793.884639      0.077358                    
P 15 -12851.404567   8764.314726  21015.722745    236.871526                    
V 15 -18408.091463 -21093.461677  -2257.192169      0.045668                    
P 16  26779.165825   1225.302015    -94.322668   -109.001959                    
V 16    197.062983   2448.405314 -31460.062137      0.096298                    
P 17 -12999.820525 -23023.940481   -254.821342    528.489701                    
V 17   2076.163040  -2095.091738  32005.855882     -0.156753                    
P 18  -3567.687165  23387.318349  11871.666915   -660.507635                    
V 18  -9132.418802  12204.525499 -27076.728688      0.002485                    
P 19 -17076.253665 -17758.130348 -10610.318376    571.435376                    
V 19  -4084.867574 -12618.842524  27642.332342      0.042631                    
P 20 -25338.559058    226.616134  -7633.969697    368.083708                    
V 20   8962.969172  -5003.166068 -29714.142748     -0.003260                    
P 21  16316.498642 -15925.842074  13019.469332     95.536898                    
V 21  -3446.291889  16248.235963  26012.028281     -0.010187                    
P 22 -20082.799695 -10650.812682  13866.230653    -84.848341                    
V 22  17171.307879  -1503.213807  24708.589532     -0.025597                    
P 23   2882.119481  14566.634078  22070.712106    378.918301                    
V 23 -27783.068777   1977.194705   2103.774784      0.077626                    
P 24 -14541.481932  20241.946428   8110.442307   -475.222609                    
V 24    559.816010 -11711.525507  29005.053929      0.028659                    
P 25  -5448.213246  15524.387583 -21160.440854    498.336858                    
V 25 -26147.619158    806.292500   7713.451413     -0.004016                    
P 26  23770.853562   5339.480526 -11209.035579     -0.597360                    
V 26 -13407.630298   4650.071963 -26255.495002     -0.138344                    
P 27  18665.776362   5651.398667  17921.892511    -34.359571                    
V 27  11451.614756  20243.864376 -17582.630980      0.002773                    
P 28  10150.810655  12726.747046 -21002.311897   -501.684915                    
V 28 -12241.249936  23662.966094   8431.509384     -0.109899                    
P 29    928.558066  22395.318618 -14196.741152   -557.781527                    
V 29 -10281.312477 -14896.719523 -24363.011627      0.030646                    
P 30  -5190.198082 -18856.226777  18001.595959   -266.109574                    
V 30  12308.589473 -19237.380845 -17009.817923      0.080544                    
P 31  16120.677203   2048.575881 -21309.990848   -220.400681                    
V 31 -12332.406077  23408.139819  -6799.422527      0.007105                    
P 32  16376.238795  20727.576268  -3471.339751   -562.574784                    
V 32    404.703962   5291.619984  31275.491711      0.058876                    
EOF
